[
    {
        "Altitude(m)": 565782.8057031275,
        "Argument of Periapsis(deg)": -0.022603160782972403,
        "Eccentricity": 0.0,
        "Inclination(deg)": 97.0,
        "Latitude(deg)": 7.687815826724405,
        "Longitude(deg)": -131.40031217718172,
        "Mean Anomaly(deg)": 172.20384326918747,
        "RAAN(deg)": 150.0059470536185,
        "Satellite Name": "Starlink Shell 3 1896",
        "Satellite Number": 1896,
        "Semi-Major Axis(m)": 6938478.169268562,
        "Time(s)": 570
    },
    {
        "Altitude(m)": 565812.9900541751,
        "Argument of Periapsis(deg)": -0.02299970746337543,
        "Eccentricity": 0.0,
        "Inclination(deg)": 97.0,
        "Latitude(deg)": 7.063459996631413,
        "Longitude(deg)": -131.51951970180116,
        "Mean Anomaly(deg)": 172.82931946689257,
        "RAAN(deg)": 150.00605138789254,
        "Satellite Name": "Starlink Shell 3 1896",
        "Satellite Number": 1896,
        "Semi-Major Axis(m)": 6938478.169268562,
        "Time(s)": 580
    },
    {
        "Altitude(m)": 565847.4484826305,
        "Argument of Periapsis(deg)": -0.023396254143778456,
        "Eccentricity": 0.0,
        "Inclination(deg)": 97.0,
        "Latitude(deg)": 6.4390847692324495,
        "Longitude(deg)": -131.63851878163783,
        "Mean Anomaly(deg)": 173.45479566459758,
        "RAAN(deg)": 150.00615572216654,
        "Satellite Name": "Starlink Shell 3 1896",
        "Satellite Number": 1896,
        "Semi-Major Axis(m)": 6938478.169268562,
        "Time(s)": 590
    },
    {
        "Altitude(m)": 565886.1934001762,
        "Argument of Periapsis(deg)": -0.023792800824181483,
        "Eccentricity": 0.0,
        "Inclination(deg)": 97.0,
        "Latitude(deg)": 5.814693170943405,
        "Longitude(deg)": -131.7573284850037,
        "Mean Anomaly(deg)": 174.08027186230262,
        "RAAN(deg)": 150.00626005644054,
        "Satellite Name": "Starlink Shell 3 1896",
        "Satellite Number": 1896,
        "Semi-Major Axis(m)": 6938478.169268562,
        "Time(s)": 600
    },
    {
        "Altitude(m)": 565929.235177863,
        "Argument of Periapsis(deg)": -0.024189347504584503,
        "Eccentricity": 0.0,
        "Inclination(deg)": 97.0,
        "Latitude(deg)": 5.190288224750705,
        "Longitude(deg)": -131.8759676998526,
        "Mean Anomaly(deg)": 174.7057480600077,
        "RAAN(deg)": 150.00636439071457,
        "Satellite Name": "Starlink Shell 3 1896",
        "Satellite Number": 1896,
        "Semi-Major Axis(m)": 6938478.169268562,
        "Time(s)": 610
    },
    {
        "Altitude(m)": 565976.5821375084,
        "Argument of Periapsis(deg)": -0.02458589418498753,
        "Eccentricity": 0.0,
        "Inclination(deg)": 97.0,
        "Latitude(deg)": 4.565872950402476,
        "Longitude(deg)": -131.99445464781002,
        "Mean Anomaly(deg)": 175.3312242577127,
        "RAAN(deg)": 150.00646872498857,
        "Satellite Name": "Starlink Shell 3 1896",
        "Satellite Number": 1896,
        "Semi-Major Axis(m)": 6938478.169268562,
        "Time(s)": 620
    },
    {
        "Altitude(m)": 566028.2405440847,
        "Argument of Periapsis(deg)": -0.024982440865390556,
        "Eccentricity": 0.0,
        "Inclination(deg)": 97.0,
        "Latitude(deg)": 3.9414503645763848,
        "Longitude(deg)": -132.11280807884881,
        "Mean Anomaly(deg)": 175.95670045541775,
        "RAAN(deg)": 150.0065730592626,
        "Satellite Name": "Starlink Shell 3 1896",
        "Satellite Number": 1896,
        "Semi-Major Axis(m)": 6938478.169268562,
        "Time(s)": 630
    },
    {
        "Altitude(m)": 566084.2145991854,
        "Argument of Periapsis(deg)": -0.025378987545793576,
        "Eccentricity": 0.0,
        "Inclination(deg)": 97.0,
        "Latitude(deg)": 3.3170234810238957,
        "Longitude(deg)": -132.2310459442204,
        "Mean Anomaly(deg)": 176.5821766531228,
        "RAAN(deg)": 150.0066773935366,
        "Satellite Name": "Starlink Shell 3 1896",
        "Satellite Number": 1896,
        "Semi-Major Axis(m)": 6938478.169268562,
        "Time(s)": 640
    },
    {
        "Altitude(m)": 566144.5064355375,
        "Argument of Periapsis(deg)": -0.025775534226196602,
        "Eccentricity": 0.0,
        "Inclination(deg)": 97.0,
        "Latitude(deg)": 2.6925953106978424,
        "Longitude(deg)": -132.34918659059042,
        "Mean Anomaly(deg)": 177.2076528508278,
        "RAAN(deg)": 150.00678172781056,
        "Satellite Name": "Starlink Shell 3 1896",
        "Satellite Number": 1896,
        "Semi-Major Axis(m)": 6938478.169268562,
        "Time(s)": 650
    },
    {
        "Altitude(m)": 566209.1161125384,
        "Argument of Periapsis(deg)": -0.026172080906599626,
        "Eccentricity": 0.0,
        "Inclination(deg)": 97.0,
        "Latitude(deg)": 2.0681688618623673,
        "Longitude(deg)": -132.46724827298704,
        "Mean Anomaly(deg)": 177.83312904853292,
        "RAAN(deg)": 150.0068860620846,
        "Satellite Name": "Starlink Shell 3 1896",
        "Satellite Number": 1896,
        "Semi-Major Axis(m)": 6938478.169268562,
        "Time(s)": 660
    },
    {
        "Altitude(m)": 566278.0416128759,
        "Argument of Periapsis(deg)": -0.026568627587002652,
        "Eccentricity": 0.0,
        "Inclination(deg)": 97.0,
        "Latitude(deg)": 1.4437471401895192,
        "Longitude(deg)": -132.58524866756773,
        "Mean Anomaly(deg)": 178.45860524623797,
        "RAAN(deg)": 150.00699039635862,
        "Satellite Name": "Starlink Shell 3 1896",
        "Satellite Number": 1896,
        "Semi-Major Axis(m)": 6938478.169268562,
        "Time(s)": 670
    },
    {
        "Altitude(m)": 566351.2788401872,
        "Argument of Periapsis(deg)": -0.02696517426740568,
        "Eccentricity": 0.0,
        "Inclination(deg)": 97.0,
        "Latitude(deg)": 0.8193331488463403,
        "Longitude(deg)": -132.70320589711181,
        "Mean Anomaly(deg)": 179.08408144394295,
        "RAAN(deg)": 150.00709473063262,
        "Satellite Name": "Starlink Shell 3 1896",
        "Satellite Number": 1896,
        "Semi-Major Axis(m)": 6938478.169268562,
        "Time(s)": 680
    },
    {
        "Altitude(m)": 566428.8216177721,
        "Argument of Periapsis(deg)": -0.0273617209478087,
        "Eccentricity": 0.0,
        "Inclination(deg)": 97.0,
        "Latitude(deg)": 0.1949298885727768,
        "Longitude(deg)": -132.82113804352517,
        "Mean Anomaly(deg)": 179.70955764164805,
        "RAAN(deg)": 150.00719906490664,
        "Satellite Name": "Starlink Shell 3 1896",
        "Satellite Number": 1896,
        "Semi-Major Axis(m)": 6938478.169268562,
        "Time(s)": 690
    },
    {
        "Altitude(m)": 566510.6616883851,
        "Argument of Periapsis(deg)": -0.027758267628211725,
        "Eccentricity": 0.0,
        "Inclination(deg)": 97.0,
        "Latitude(deg)": -0.429459642246277,
        "Longitude(deg)": -132.93906266026409,
        "Mean Anomaly(deg)": 180.33503383935303,
        "RAAN(deg)": 150.00730339918064,
        "Satellite Name": "Starlink Shell 3 1896",
        "Satellite Number": 1896,
        "Semi-Major Axis(m)": 6938478.169268562,
        "Time(s)": 700
    },
    {
        "Altitude(m)": 566596.7887150653,
        "Argument of Periapsis(deg)": -0.028154814308614752,
        "Eccentricity": 0.0,
        "Inclination(deg)": 97.0,
        "Latitude(deg)": -1.0538324475105756,
        "Longitude(deg)": -133.0569977975849,
        "Mean Anomaly(deg)": 180.96051003705813,
        "RAAN(deg)": 150.00740773345464,
        "Satellite Name": "Starlink Shell 3 1896",
        "Satellite Number": 1896,
        "Semi-Major Axis(m)": 6938478.169268562,
        "Time(s)": 710
    },
    {
        "Altitude(m)": 566687.1902830375,
        "Argument of Periapsis(deg)": -0.02855136098901778,
        "Eccentricity": 0.0,
        "Inclination(deg)": 97.0,
        "Latitude(deg)": -1.6781855333348683,
        "Longitude(deg)": -133.17496151490406,
        "Mean Anomaly(deg)": 181.58598623476317,
        "RAAN(deg)": 150.00751206772864,
        "Satellite Name": "Starlink Shell 3 1896",
        "Satellite Number": 1896,
        "Semi-Major Axis(m)": 6938478.169268562,
        "Time(s)": 720
    },
    {
        "Altitude(m)": 566781.851902654,
        "Argument of Periapsis(deg)": -0.028947907669420805,
        "Eccentricity": 0.0,
        "Inclination(deg)": 97.0,
        "Latitude(deg)": -2.3025159079790445,
        "Longitude(deg)": -133.29297139317632,
        "Mean Anomaly(deg)": 182.21146243246818,
        "RAAN(deg)": 150.00761640200267,
        "Satellite Name": "Starlink Shell 3 1896",
        "Satellite Number": 1896,
        "Semi-Major Axis(m)": 6938478.169268562,
        "Time(s)": 730
    },
    {
        "Altitude(m)": 566880.757013408,
        "Argument of Periapsis(deg)": -0.029344454349823825,
        "Eccentricity": 0.0,
        "Inclination(deg)": 97.0,
        "Latitude(deg)": -2.926820581770049,
        "Longitude(deg)": -133.4110455601961,
        "Mean Anomaly(deg)": 182.83693863017325,
        "RAAN(deg)": 150.00772073627667,
        "Satellite Name": "Starlink Shell 3 1896",
        "Satellite Number": 1896,
        "Semi-Major Axis(m)": 6938478.169268562,
        "Time(s)": 740
    },
    {
        "Altitude(m)": 566983.8869890083,
        "Argument of Periapsis(deg)": -0.029741001030226845,
        "Eccentricity": 0.0,
        "Inclination(deg)": 97.0,
        "Latitude(deg)": -3.5510965670185666,
        "Longitude(deg)": -133.52920220310855,
        "Mean Anomaly(deg)": 183.46241482787826,
        "RAAN(deg)": 150.0078250705507,
        "Satellite Name": "Starlink Shell 3 1896",
        "Satellite Number": 1896,
        "Semi-Major Axis(m)": 6938478.169268562,
        "Time(s)": 750
    }
]